VELA 2                   Age = -1.06
1 00674U 63039A   22055.81445285 -.00000120  00000-0  00000-0 0  9993
2 00674  41.3615 136.2642 2277479 112.0694   0.0882  0.22195213  5888
OPS 3674 (VELA 4)        Age = -0.78
1 00837U 64040B   22055.52922139  .00000067  00000-0  00000-0 0  9992
2 00837  45.0928 151.0688 3456551 306.2925   0.7225  0.23996987 50951
SL-12 R/B(2)             Age = -0.51
1 20413U 83020D   22055.26459159  .00000446  00000-0  00000+0 0  9991
2 20413  67.3506  72.0170 7467266 359.0354   0.5063  0.24766152 22093
GEOTAIL                  Age = -1.55
1 22049U 92044A   22056.30374486 -.00000539  00000-0  00000-0 0  9994
2 22049  44.0333  38.7865 4976845 194.1102 359.1282  0.19233209 12758
CXO                      Age = -2.23
1 25867U 99040B   22056.98559314  .00000746  00000-0  00000+0 0  9995
2 25867  48.4256 242.5614 8681525 230.3087   0.7180  0.37808373 22538
XMM-NEWTON               Age = -0.06
1 25989U 99066A   22054.81314104  .00000225  00000-0  00000-0 0  9997
2 25989  70.3573 306.8892 6202447  87.9831   0.0923  0.50137885 15116
CLUSTER II-FM7 (SAMBA)   Age = -1.03
1 26410U 00041A   22055.78714640 -.00000128  00000-0  00000-0 0  9991
2 26410 133.6935 346.6831 5397604 197.2705 359.7199  0.44207549 13317
CLUSTER II-FM6 (SALSA)   Age = -1.02
1 26411U 00041B   22055.77440679 -.00000110  00000-0  00000-0 0  9990
2 26411 135.3776 349.5195 7007149 201.8238 359.6229  0.44224126 13359
CLUSTER II-FM5 (RUMBA)   Age = -1.03
1 26463U 00045A   22055.77921423 -.00000024  00000-0  00000-0 0  9996
2 26463 138.9653 349.7419 6533119 202.4982 359.7756  0.44223544 13240
CLUSTER II-FM8 (TANGO)   Age = -1.03
1 26464U 00045B   22055.78242158 -.00000128  00000-0  00000-0 0  9994
2 26464 133.6938 346.6806 5396803 197.2473 359.7677  0.44218535 13322
TITAN 3C TRANSTAGE R/B   Age = -1.34
1 50000U 70027C   22056.09100081  .00000175  00000-0  00000-0 0  9998
2 50000   4.1155 146.5488 8076507 103.7306 359.9783  0.44284199 84188
